ONEWEB-0564             
1 55801U 23029F   25095.79069728 -.00000033  00000+0 -11384-3 0  9991
2 55801  87.9336   1.5462 0002041  89.8390 270.2977 13.20770106103419
ONEWEB-0638             
1 55802U 23029G   25096.47698699  .00000003  00000+0 -25985-4 0  9992
2 55802  87.9094  16.6116 0002442  81.2754 278.8652 13.14503901102737
ONEWEB-0639             
1 55803U 23029H   25096.32717793  .00000057  00000+0  10986-3 0  9996
2 55803  87.9249  31.8105 0002262  48.1716 311.9609 13.19723497101972
ONEWEB-0640             
1 55804U 23029J   25095.80143896 -.00000262  00000+0 -74198-3 0  9991
2 55804  87.9092  16.7347 0002597  72.1613 287.9800 13.14504618101953
ONEWEB-0641             
1 55805U 23029K   25095.86753138 -.00000381  00000+0 -98385-3 0  9990
2 55805  87.9246  31.8758 0001917  72.2800 287.8542 13.19725079101237
ONEWEB-0642             
1 55806U 23029L   25095.86279472 -.00000306  00000+0 -79640-3 0  9995
2 55806  87.9250  31.9110 0001897  49.6336 310.4962 13.19725454101220
ONEWEB-0643             
1 55807U 23029M   25096.15189435  .00000254  00000+0  65051-3 0  9999
2 55807  87.9094  16.6468 0001390  54.9189 305.2071 13.14503575102683
ONEWEB-0644             
1 55808U 23029N   25096.54041457  .00000065  00000+0  12894-3 0  9991
2 55808  87.9253  31.7786 0001828  62.3874 297.7444 13.19723537102004
